{"type": "FeatureCollection", "features": [ {"type": "Feature", "properties": {"norad_id": 34979, "name": "COSMOS 2251 DEB", "group": "cosmos-2251-debris", "lat": 28.92153707627924, "lon": 61.58971038844526, "alt_km": 663.6797669161315, "timestamp": "2025-12-21T03:56:51.228340+00:00", "meta": {"OBJECT_NAME": "COSMOS 2251 DEB", "OBJECT_ID": "1993-036AFJ", "EPOCH": "2025-12-19T23:40:58.833984", "MEAN_MOTION": 14.79473433, "ECCENTRICITY": 0.004917, "INCLINATION": 74.04, "RA_OF_ASC_NODE": 253.0039, "ARG_OF_PERICENTER": 329.4569, "MEAN_ANOMALY": 30.3744, "EPHEMERIS_TYPE": 0, "CLASSIFICATION_TYPE": "U", "NORAD_CAT_ID": 34979, "ELEMENT_SET_NO": 999, "REV_AT_EPOCH": 88327, "BSTAR": 0.0007282, "MEAN_MOTION_DOT": 5.522e-05, "MEAN_MOTION_DDOT": 0}, "tle": {"line1": "1 34979U 93036AFJ 25353.98679206  .00005522  00000+0  72820-3 0  9993", "line2": "2 34979  74.0400 253.0039 0049170 329.4569  30.3744 14.79473433883274"}}, "geometry": {"type": "Point", "coordinates": [61.58971038844526, 28.92153707627924]}}, {"type": "Feature", "properties": {"norad_id": 34990, "name": "COSMOS 2251 DEB", "group": "cosmos-2251-debris", "lat": -29.918194411948285, "lon": 65.19680440537898, "alt_km": 755.2985476317263, "timestamp": "2025-12-21T03:56:51.228348+00:00", "meta": {"OBJECT_NAME": "COSMOS 2251 DEB", "OBJECT_ID": "1993-036AFN", "EPOCH": "2025-12-15T10:28:28.781472", "MEAN_MOTION": 14.42382837, "ECCENTRICITY": 0.00165597, "INCLINATION": 74.0457, "RA_OF_ASC_NODE": 246.3361, "ARG_OF_PERICENTER": 308.9911, "MEAN_ANOMALY": 50.977, "EPHEMERIS_TYPE": 0, "CLASSIFICATION_TYPE": "U", "NORAD_CAT_ID": 34990, "ELEMENT_SET_NO": 999, "REV_AT_EPOCH": 87385, "BSTAR": 0.00031884459, "MEAN_MOTION_DOT": 1.029e-05, "MEAN_MOTION_DDOT": 0}, "tle": {"line1": "1 34990U 93036AFN 25349.43644423  .00001029  00000+0  31884-3 0  9997", "line2": "2 34990  74.0457 246.3361 0016559 308.9911  50.9770 14.42382837873857"}}, "geometry": {"type": "Point", "coordinates": [65.19680440537898, -29.918194411948285]}}, {"type": "Feature", "properties": {"norad_id": 34997, "name": "COSMOS 2251 DEB", "group": "cosmos-2251-debris", "lat": 60.697633244125925, "lon": 84.32460798310302, "alt_km": 795.8210934628642, "timestamp": "2025-12-21T03:56:51.228358+00:00", "meta": {"OBJECT_NAME": "COSMOS 2251 DEB", "OBJECT_ID": "1993-036AFV", "EPOCH": "2025-12-14T03:40:01.084512", "MEAN_MOTION": 14.45585468, "ECCENTRICITY": 0.00977103, "INCLINATION": 73.8806, "RA_OF_ASC_NODE": 308.5363, "ARG_OF_PERICENTER": 283.3348, "MEAN_ANOMALY": 75.6929, "EPHEMERIS_TYPE": 0, "CLASSIFICATION_TYPE": "U", "NORAD_CAT_ID": 34997, "ELEMENT_SET_NO": 999, "REV_AT_EPOCH": 70767, "BSTAR": 0.0019000145, "MEAN_MOTION_DOT": 7.095e-05, "MEAN_MOTION_DDOT": 0}, "tle": {"line1": "1 34997U 93036AFV 25348.15279033  .00007095  00000+0  19000-2 0  9997", "line2": "2 34997  73.8806 308.5363 0097710 283.3348  75.6929 14.45585468707674"}}, "geometry": {"type": "Point", "coordinates": [84.32460798310302, 60.697633244125925]}}, {"type": "Feature", "properties": {"norad_id": 34998, "name": "COSMOS 2251 DEB", "group": "cosmos-2251-debris", "lat": 67.77040397557572, "lon": -80.39901758933907, "alt_km": 736.0858338955659, "timestamp": "2025-12-21T03:56:51.228366+00:00", "meta": {"OBJECT_NAME": "COSMOS 2251 DEB", "OBJECT_ID": "1993-036AFW", "EPOCH": "2025-12-18T21:30:12.356640", "MEAN_MOTION": 14.493061, "ECCENTRICITY": 0.00213351, "INCLINATION": 74.0096, "RA_OF_ASC_NODE": 148.4189, "ARG_OF_PERICENTER": 293.0415, "MEAN_ANOMALY": 221.403, "EPHEMERIS_TYPE": 0, "CLASSIFICATION_TYPE": "U", "NORAD_CAT_ID": 34998, "ELEMENT_SET_NO": 999, "REV_AT_EPOCH": 87509, "BSTAR": 0.00045734953, "MEAN_MOTION_DOT": 1.723e-05, "MEAN_MOTION_DDOT": 0}, "tle": {"line1": "1 34998U 93036AFW 25352.89597635  .00001723  00000+0  45735-3 0  9992", "line2": "2 34998  74.0096 148.4189 0021335 293.0415 221.4030 14.49306100875093"}}, "geometry": {"type": "Point", "coordinates": [-80.39901758933907, 67.77040397557572]}}, {"type": "Feature", "properties": {"norad_id": 35012, "name": "COSMOS 2251 DEB", "group": "cosmos-2251-debris", "lat": -32.118934485490485, "lon": 85.65157474112824, "alt_km": 747.6536636656174, "timestamp": "2025-12-21T03:56:51.228376+00:00", "meta": {"OBJECT_NAME": "COSMOS 2251 DEB", "OBJECT_ID": "1993-036AFZ", "EPOCH": "2025-12-20T06:30:40.167936", "MEAN_MOTION": 14.45558018, "ECCENTRICITY": 0.00814823, "INCLINATION": 74.021, "RA_OF_ASC_NODE": 97.6804, "ARG_OF_PERICENTER": 236.2256, "MEAN_ANOMALY": 123.1123, "EPHEMERIS_TYPE": 0, "CLASSIFICATION_TYPE": "U", "NORAD_CAT_ID": 35012, "ELEMENT_SET_NO": 999, "REV_AT_EPOCH": 87670, "BSTAR": 0.00013197247, "MEAN_MOTION_DOT": 4.56e-06, "MEAN_MOTION_DDOT": 0}, "tle": {"line1": "1 35012U 93036AFZ 25354.27129824  .00000456  00000+0  13197-3 0  9994", "line2": "2 35012  74.0210  97.6804 0081482 236.2256 123.1123 14.45558018876702"}}, "geometry": {"type": "Point", "coordinates": [85.65157474112824, -32.118934485490485]}}, {"type": "Feature", "properties": {"norad_id": 35014, "name": "COSMOS 2251 DEB", "group": "cosmos-2251-debris", "lat": -66.56736373755146, "lon": -111.51126490063251, "alt_km": 647.7116578402183, "timestamp": "2025-12-21T03:56:51.228385+00:00", "meta": {"OBJECT_NAME": "COSMOS 2251 DEB", "OBJECT_ID": "1993-036AGB", "EPOCH": "2025-12-17T09:17:45.359520", "MEAN_MOTION": 14.75277506, "ECCENTRICITY": 0.00070196, "INCLINATION": 73.9998, "RA_OF_ASC_NODE": 34.4305, "ARG_OF_PERICENTER": 212.3979, "MEAN_ANOMALY": 147.6764, "EPHEMERIS_TYPE": 0, "CLASSIFICATION_TYPE": "U", "NORAD_CAT_ID": 35014, "ELEMENT_SET_NO": 999, "REV_AT_EPOCH": 71405, "BSTAR": 0.0010947042, "MEAN_MOTION_DOT": 7.39e-05, "MEAN_MOTION_DDOT": 0}, "tle": {"line1": "1 35014U 93036AGB 25351.38733055  .00007390  00000+0  10947-2 0  9995", "line2": "2 35014  73.9998  34.4305 0007019 212.3979 147.6764 14.75277506714055"}}, "geometry": {"type": "Point", "coordinates": [-111.51126490063251, -66.56736373755146]}}, {"type": "Feature", "properties": {"norad_id": 35015, "name": "COSMOS 2251 DEB", "group": "cosmos-2251-debris", "lat": 35.325872218582894, "lon": 27.129019340455773, "alt_km": 704.1153056677203, "timestamp": "2025-12-21T03:56:51.228393+00:00", "meta": {"OBJECT_NAME": "COSMOS 2251 DEB", "OBJECT_ID": "1993-036AGC", "EPOCH": "2025-12-15T22:56:26.813760", "MEAN_MOTION": 14.46895598, "ECCENTRICITY": 0.0074243, "INCLINATION": 73.9481, "RA_OF_ASC_NODE": 228.6843, "ARG_OF_PERICENTER": 96.6585, "MEAN_ANOMALY": 285.5342, "EPHEMERIS_TYPE": 0, "CLASSIFICATION_TYPE": "U", "NORAD_CAT_ID": 35015, "ELEMENT_SET_NO": 999, "REV_AT_EPOCH": 65487, "BSTAR": 0.00054698056, "MEAN_MOTION_DOT": 2.026e-05, "MEAN_MOTION_DDOT": 0}, "tle": {"line1": "1 35015U 93036AGC 25349.95586590  .00002026  00000+0  54698-3 0  9999", "line2": "2 35015  73.9481 228.6843 0074243  96.6585 285.5342 14.46895598654878"}}, "geometry": {"type": "Point", "coordinates": [27.129019340455773, 35.325872218582894]}}, {"type": "Feature", "properties": {"norad_id": 35016, "name": "COSMOS 2251 DEB", "group": "cosmos-2251-debris", "lat": 14.215418361646009, "lon": 94.68895287147357, "alt_km": 703.7564514755113, "timestamp": "2025-12-21T03:56:51.228402+00:00", "meta": {"OBJECT_NAME": "COSMOS 2251 DEB", "OBJECT_ID": "1993-036AGD", "EPOCH": "2025-12-20T02:10:44.587776", "MEAN_MOTION": 14.35073352, "ECCENTRICITY": 0.01141383, "INCLINATION": 73.9302, "RA_OF_ASC_NODE": 280.857, "ARG_OF_PERICENTER": 196.2798, "MEAN_ANOMALY": 184.6869, "EPHEMERIS_TYPE": 0, "CLASSIFICATION_TYPE": "U", "NORAD_CAT_ID": 35016, "ELEMENT_SET_NO": 999, "REV_AT_EPOCH": 86888, "BSTAR": 0.0002031915, "MEAN_MOTION_DOT": 5.96e-06, "MEAN_MOTION_DDOT": 0}, "tle": {"line1": "1 35016U 93036AGD 25354.09079384  .00000596  00000+0  20319-3 0  9992", "line2": "2 35016  73.9302 280.8570 0114138 196.2798 184.6869 14.35073352868884"}}, "geometry": {"type": "Point", "coordinates": [94.68895287147357, 14.215418361646009]}}, {"type": "Feature", "properties": {"norad_id": 35018, "name": "COSMOS 2251 DEB", "group": "cosmos-2251-debris", "lat": 6.404972685835438, "lon": 97.95841009092902, "alt_km": 754.288244173782, "timestamp": "2025-12-21T03:56:51.228411+00:00", "meta": {"OBJECT_NAME": "COSMOS 2251 DEB", "OBJECT_ID": "1993-036AGF", "EPOCH": "2025-12-17T17:22:46.408800", "MEAN_MOTION": 13.67124195, "ECCENTRICITY": 0.03487062, "INCLINATION": 73.976, "RA_OF_ASC_NODE": 101.7737, "ARG_OF_PERICENTER": 9.849, "MEAN_ANOMALY": 350.9229, "EPHEMERIS_TYPE": 0, "CLASSIFICATION_TYPE": "U", "NORAD_CAT_ID": 35018, "ELEMENT_SET_NO": 999, "REV_AT_EPOCH": 83254, "BSTAR": 0.00069190439, "MEAN_MOTION_DOT": 8.6e-06, "MEAN_MOTION_DDOT": 0}, "tle": {"line1": "1 35018U 93036AGF 25351.72414825  .00000860  00000+0  69190-3 0  9998", "line2": "2 35018  73.9760 101.7737 0348706   9.8490 350.9229 13.67124195832546"}}, "geometry": {"type": "Point", "coordinates": [97.95841009092902, 6.404972685835438]}}, {"type": "Feature", "properties": {"norad_id": 35020, "name": "COSMOS 2251 DEB", "group": "cosmos-2251-debris", "lat": 21.800805447597014, "lon": -170.61880818700197, "alt_km": 680.4986726424286, "timestamp": "2025-12-21T03:56:51.228420+00:00", "meta": {"OBJECT_NAME": "COSMOS 2251 DEB", "OBJECT_ID": "1993-036AGH", "EPOCH": "2025-12-16T23:43:20.938656", "MEAN_MOTION": 14.62811627, "ECCENTRICITY": 0.00912676, "INCLINATION": 74.046, "RA_OF_ASC_NODE": 190.8083, "ARG_OF_PERICENTER": 304.0673, "MEAN_ANOMALY": 55.1854, "EPHEMERIS_TYPE": 0, "CLASSIFICATION_TYPE": "U", "NORAD_CAT_ID": 35020, "ELEMENT_SET_NO": 999, "REV_AT_EPOCH": 88300, "BSTAR": 0.00011860336, "MEAN_MOTION_DOT": 6.08e-06, "MEAN_MOTION_DDOT": 0}, "tle": {"line1": "1 35020U 93036AGH 25350.98843679  .00000608  00000+0  11860-3 0  9992", "line2": "2 35020  74.0460 190.8083 0091267 304.0673  55.1854 14.62811627883005"}}, "geometry": {"type": "Point", "coordinates": [-170.61880818700197, 21.800805447597014]}}]}